{
  "type": "FeatureCollection",
  "features": [
    {
      "type": "Feature",
      "properties": {
        "norad_id": 19071,
        "name": "OSCAR 32",
        "group": "nnss",
        "lat": -21.063857446835865,
        "lon": 16.811359858623984,
        "alt_km": 1300.8751655308706,
        "timestamp": "2025-12-17T23:38:07.122596+00:00",
        "meta_object_name": "OSCAR 32",
        "meta_object_id": "1988-033B",
        "meta_epoch": "2025-12-17T15:17:38.406048",
        "meta_mean_motion": 13.27954687,
        "meta_eccentricity": 0.0188728,
        "meta_inclination": 90.3213,
        "meta_ra_of_asc_node": 16.6767,
        "meta_arg_of_pericenter": 153.2139,
        "meta_mean_anomaly": 325.5255,
        "meta_ephemeris_type": 0,
        "meta_classification_type": "U",
        "meta_norad_cat_id": 19071,
        "meta_element_set_no": 999,
        "meta_rev_at_epoch": 82330,
        "meta_bstar": 0.00017613289,
        "meta_mean_motion_dot": 9.7e-07,
        "meta_mean_motion_ddot": 0,
        "tle_line1": "1 19071U 88033B   25351.63725007  .00000097  00000+0  17613-3 0  9992",
        "tle_line2": "2 19071  90.3213  16.6767 0188728 153.2139 325.5255 13.27954687823304"
      },
      "geometry": {
        "type": "Point",
        "coordinates": [
          16.811359858623984,
          -21.063857446835865
        ]
      }
    },
    {
      "type": "Feature",
      "properties": {
        "norad_id": 19223,
        "name": "NOVA 2",
        "group": "nnss",
        "lat": 82.24089031321084,
        "lon": 78.36001872409524,
        "alt_km": 1162.0359888371877,
        "timestamp": "2025-12-17T23:38:07.122606+00:00",
        "meta_object_name": "NOVA 2",
        "meta_object_id": "1988-052A",
        "meta_epoch": "2025-12-17T12:23:27.819744",
        "meta_mean_motion": 13.22936306,
        "meta_eccentricity": 0.00301783,
        "meta_inclination": 89.9872,
        "meta_ra_of_asc_node": 78.2666,
        "meta_arg_of_pericenter": 3.8196,
        "meta_mean_anomaly": 8.0726,
        "meta_ephemeris_type": 0,
        "meta_classification_type": "U",
        "meta_norad_cat_id": 19223,
        "meta_element_set_no": 999,
        "meta_rev_at_epoch": 81011,
        "meta_bstar": 0.00012439834,
        "meta_mean_motion_dot": 6.1e-07,
        "meta_mean_motion_ddot": 0,
        "tle_line1": "1 19223U 88052A   25351.51629421  .00000061  00000+0  12440-3 0  9996",
        "tle_line2": "2 19223  89.9872  78.2666 0030178   3.8196   8.0726 13.22936306810112"
      },
      "geometry": {
        "type": "Point",
        "coordinates": [
          78.36001872409524,
          82.24089031321084
        ]
      }
    },
    {
      "type": "Feature",
      "properties": {
        "norad_id": 19419,
        "name": "OSCAR 25",
        "group": "nnss",
        "lat": 11.500892664872579,
        "lon": -159.73151033297896,
        "alt_km": 1067.375582588007,
        "timestamp": "2025-12-17T23:38:07.122616+00:00",
        "meta_object_name": "OSCAR 25",
        "meta_object_id": "1988-074A",
        "meta_epoch": "2025-12-17T14:27:01.924704",
        "meta_mean_motion": 13.42624251,
        "meta_eccentricity": 0.00946858,
        "meta_inclination": 90.0343,
        "meta_ra_of_asc_node": 20.2602,
        "meta_arg_of_pericenter": 231.7465,
        "meta_mean_anomaly": 248.936,
        "meta_ephemeris_type": 0,
        "meta_classification_type": "U",
        "meta_norad_cat_id": 19419,
        "meta_element_set_no": 999,
        "meta_rev_at_epoch": 82705,
        "meta_bstar": 0.00016594164,
        "meta_mean_motion_dot": 1.05e-06,
        "meta_mean_motion_ddot": 0,
        "tle_line1": "1 19419U 88074A   25351.60210561  .00000105  00000+0  16594-3 0  9991",
        "tle_line2": "2 19419  90.0343  20.2602 0094685 231.7465 248.9360 13.42624251827051"
      },
      "geometry": {
        "type": "Point",
        "coordinates": [
          -159.73151033297896,
          11.500892664872579
        ]
      }
    },
    {
      "type": "Feature",
      "properties": {
        "norad_id": 19420,
        "name": "OSCAR 31",
        "group": "nnss",
        "lat": 52.18125679547267,
        "lon": 20.5660003318241,
        "alt_km": 1163.8484538809698,
        "timestamp": "2025-12-17T23:38:07.122627+00:00",
        "meta_object_name": "OSCAR 31",
        "meta_object_id": "1988-074B",
        "meta_epoch": "2025-12-17T15:02:53.553408",
        "meta_mean_motion": 13.42585391,
        "meta_eccentricity": 0.0093038,
        "meta_inclination": 90.0359,
        "meta_ra_of_asc_node": 20.611,
        "meta_arg_of_pericenter": 225.8123,
        "meta_mean_anomaly": 258.2561,
        "meta_ephemeris_type": 0,
        "meta_classification_type": "U",
        "meta_norad_cat_id": 19420,
        "meta_element_set_no": 999,
        "meta_rev_at_epoch": 82716,
        "meta_bstar": 0.00015036978,
        "meta_mean_motion_dot": 9.6e-07,
        "meta_mean_motion_ddot": 0,
        "tle_line1": "1 19420U 88074B   25351.62700872  .00000096  00000+0  15037-3 0  9994",
        "tle_line2": "2 19420  90.0359  20.6110 0093038 225.8123 258.2561 13.42585391827164"
      },
      "geometry": {
        "type": "Point",
        "coordinates": [
          20.5660003318241,
          52.18125679547267
        ]
      }
    }
  ]
}